SBSS (USA 216)          
1 37168U 10048A   26068.88624904  .00004946  00000+0  24191-3 0  9993
2 37168  97.7474 312.3885 0082264 184.8326 306.5835 15.15724210837421
STARLINK-33990          
1 63840U 25093E   26068.04214292  .00043833  00000+0  15920-2 0  9995
2 63840  43.0025  81.5030 0002507 278.0352  82.0216 15.27598871 47659
